IRIDIUM 138             
1 43071U 17083B   26195.80526733  .00000137  00000+0  41741-4 0  9992
2 43071  86.3999 310.1704 0002055  91.9436 268.1995 14.34218564448094
IRIDIUM 116             
1 43072U 17083C   26195.84332266  .00000128  00000+0  38542-4 0  9998
2 43072  86.3985 310.4404 0002443  98.6620 261.4852 14.34217711448136
IRIDIUM 130             
1 43073U 17083D   26195.81161358  .00000135  00000+0  40981-4 0  9996
2 43073  86.3993 310.7316 0002250 100.6404 259.5045 14.34217860448071
IRIDIUM 151             
1 43074U 17083E   26195.85600954  .00000137  00000+0  41712-4 0  9996
2 43074  86.3986 310.4935 0002239  95.1945 264.9507 14.34218120448100
IRIDIUM 134             
1 43075U 17083F   26195.82429630  .00000082  00000+0  22126-4 0  9991
2 43075  86.3988 310.5151 0002209  95.1934 264.9514 14.34218054448068
IRIDIUM 137             
1 43076U 17083G   26195.83698228  .00000116  00000+0  34296-4 0  9993
2 43076  86.3990 310.6033 0002683  93.1369 267.0134 14.34218388448138
IRIDIUM 141             
1 43077U 17083H   26195.83063839  .00000077  00000+0  20539-4 0  9999
2 43077  86.3985 310.4349 0002173  93.1842 266.9603 14.34217661448133
IRIDIUM 153             
1 43078U 17083J   26195.71304867  .00000071  00000+0  18234-4 0  9999
2 43078  86.3960 278.9634 0002108  94.3474 265.7962 14.34217854449224
IRIDIUM 131             
1 43079U 17083K   26195.81795362  .00000090  00000+0  24944-4 0  9991
2 43079  86.3990 310.6280 0002199  93.5636 266.5811 14.34218250448064
IRIDIUM 144             
1 43249U 18030A   26195.78916014  .00000064  00000+0  15732-4 0  9994
2 43249  86.3957 278.8600 0002376  97.1102 263.0364 14.34217880434093
IRIDIUM 149             
1 43250U 18030B   26195.72573439  .00000101  00000+0  28991-4 0  9993
2 43250  86.3957 278.8532 0002252  93.2011 266.9442 14.34218009434103
IRIDIUM 157             
1 43251U 18030C   26195.74476450  .00000140  00000+0  42872-4 0  9998
2 43251  86.3960 278.8993 0002249  94.3429 265.8024 14.34217927434089
IRIDIUM 140             
1 43252U 18030D   26195.76379230  .00000146  00000+0  45032-4 0  9996
2 43252  86.3958 278.9038 0002234  95.9291 264.2160 14.34217539434146
IRIDIUM 145             
1 43253U 18030E   26195.75110396  .00000115  00000+0  34131-4 0  9996
2 43253  86.3958 278.8811 0002523 100.5745 259.5735 14.34217365434077
IRIDIUM 146             
1 43254U 18030F   26195.73207660  .00000071  00000+0  18164-4 0  9995
2 43254  86.3959 278.9013 0002361  96.5323 263.6141 14.34217576434082
IRIDIUM 148             
1 43255U 18030G   26195.77013557  .00000139  00000+0  42506-4 0  9992
2 43255  86.3960 278.9289 0002340  93.5543 266.5920 14.34217887434125
IRIDIUM 142             
1 43256U 18030H   26195.73841981  .00000088  00000+0  24204-4 0  9997
2 43256  86.3954 278.8301 0002422  97.1767 262.9704 14.34217976434086
IRIDIUM 150             
1 43257U 18030J   26195.77647293 -.00000186  00000+0 -73377-4 0  9998
2 43257  86.3957 278.9316 0002175  96.4429 263.7014 14.34216150434119
IRIDIUM 143             
1 43258U 18030K   26195.75744828  .00000070  00000+0  18013-4 0  9995
2 43258  86.3962 279.0330 0002327  97.4738 262.6722 14.34217431434046
IRIDIUM 161             
1 43478U 18047C   26195.76266035  .00000149  00000+0  38279-4 0  9990
2 43478  86.4463  76.9393 0002271  80.4132 279.7326 14.43275539429112
IRIDIUM 152             
1 43479U 18047D   26195.79993492  .00000142  00000+0  43610-4 0  9996
2 43479  86.3936  76.7850 0002208  84.9322 275.2125 14.34218625426447
IRIDIUM 147             
1 43480U 18047E   26195.73650734  .00000084  00000+0  22865-4 0  9995
2 43480  86.3940  76.8172 0002276  88.8757 271.2700 14.34217274426435
IRIDIUM 110             
1 43481U 18047F   26195.74284990  .00000155  00000+0  48158-4 0  9996
2 43481  86.3941  76.9071 0002129  77.4424 282.7010 14.34218511426423
IRIDIUM 162             
1 43482U 18047G   26195.75636617  .00000197  00000+0  52548-4 0  9999
2 43482  86.4460  76.8324 0002209  87.3080 272.8374 14.43278373429101
IRIDIUM 160             
1 43569U 18061A   26195.61891661  .00000121  00000+0  36242-4 0  9998
2 43569  86.3940  45.3229 0002244  86.9466 273.1987 14.34216893417308
IRIDIUM 166             
1 43570U 18061B   26195.64428833  .00000030  00000+0  37704-5 0  9994
2 43570  86.3938  45.2625 0002292  90.3867 269.7591 14.34217579417330
IRIDIUM 158             
1 43571U 18061C   26195.61257488  .00000064  00000+0  15934-4 0  9995
2 43571  86.3939  45.2856 0002070  87.0705 273.0728 14.34217664417296
IRIDIUM 165             
1 43572U 18061D   26195.63794562  .00000015  00000+0 -16489-5 0  9991
2 43572  86.3937  45.3214 0002167  91.2597 268.8847 14.34216965417328
IRIDIUM 155             
1 43573U 18061E   26195.66965789  .00000100  00000+0  28770-4 0  9995
2 43573  86.3939  45.1767 0002124  88.9230 271.2209 14.34217733417292
IRIDIUM 154             
1 43574U 18061F   26195.65063013  .00000073  00000+0  18880-4 0  9994
2 43574  86.3939  45.3194 0002309  90.5055 269.6406 14.34217501417347
IRIDIUM 163             
1 43575U 18061G   26195.63160271  .00000048  00000+0  10163-4 0  9995
2 43575  86.3936  45.2416 0002129  85.7174 274.4265 14.34217328417310
